$$SOE
2460728.500000000, A.D. 2025-Feb-22 00:00:00.0000, -2.111064575084065E+08, -2.115825083197593E+08, -1.565256633669588E+07,
2460735.500000000, A.D. 2025-Mar-01 00:00:00.0000, -2.011036656798642E+08, -2.205470999558942E+08, -1.598322216230519E+07,
2460742.500000000, A.D. 2025-Mar-08 00:00:00.0000, -1.907353545875279E+08, -2.291108707567281E+08, -1.628482669734909E+07,
2460749.500000000, A.D. 2025-Mar-15 00:00:00.0000, -1.800191844194002E+08, -2.372568383152027E+08, -1.655673138879503E+07,
2460756.500000000, A.D. 2025-Mar-22 00:00:00.0000, -1.689737806532586E+08, -2.449689394977089E+08, -1.679835638722248E+07,
2460763.500000000, A.D. 2025-Mar-29 00:00:00.0000, -1.576186746853744E+08, -2.522321012647754E+08, -1.700919344921243E+07,
2460770.500000000, A.D. 2025-Apr-05 00:00:00.0000, -1.459742365885490E+08, -2.590323055673128E+08, -1.718880853005330E+07,
2460777.500000000, A.D. 2025-Apr-12 00:00:00.0000, -1.340616024569428E+08, -2.653566475541675E+08, -1.733684385412002E+07,
2460784.500000000, A.D. 2025-Apr-19 00:00:00.0000, -1.219025971395294E+08, -2.711933873773385E+08, -1.745301949527444E+07,
2460791.500000000, A.D. 2025-Apr-26 00:00:00.0000, -1.095196527784286E+08, -2.765319952792825E+08, -1.753713449175799E+07,
2460798.500000000, A.D. 2025-May-03 00:00:00.0000, -9.693572378748260E+07, -2.813631895109454E+08, -1.758906749306610E+07,
2460805.500000000, A.D. 2025-May-10 00:00:00.0000, -8.417419903889510E+07, -2.856789667323511E+08, -1.760877693448900E+07,
2460812.500000000, A.D. 2025-May-17 00:00:00.0000, -7.125881204500021E+07, -2.894726246950310E+08, -1.759630074518202E+07,
2460819.500000000, A.D. 2025-May-24 00:00:00.0000, -5.821354979379068E+07, -2.927387771300898E+08, -1.755175561719377E+07,
2460826.500000000, A.D. 2025-May-31 00:00:00.0000, -4.506256065620271E+07, -2.954733605230390E+08, -1.747533586482219E+07,
2460833.500000000, A.D. 2025-Jun-07 00:00:00.0000, -3.183006260244037E+07, -2.976736316767194E+08, -1.736731176241064E+07,
2460840.500000000, A.D. 2025-Jun-14 00:00:00.0000, -1.854025491203761E+07, -2.993381569266177E+08, -1.722802722448388E+07,
2460847.500000000, A.D. 2025-Jun-21 00:00:00.0000, -5.217232938406507E+06, -3.004667965571241E+08, -1.705789723521408E+07,
2460854.500000000, A.D. 2025-Jun-28 00:00:00.0000, 8.115096483570885E+06, -3.010606830130078E+08, -1.685740520063250E+07,
2460861.500000000, A.D. 2025-Jul-05 00:00:00.0000, 2.143309682343485E+07, -3.011221911858838E+08, -1.662709994234408E+07,
2460868.500000000, A.D. 2025-Jul-12 00:00:00.0000, 3.471347907266136E+07, -3.006549020864774E+08, -1.636759232731558E+07,
2460875.500000000, A.D. 2025-Jul-19 00:00:00.0000, 4.793337408956293E+07, -2.996635610434071E+08, -1.607955163946426E+07,
2460882.500000000, A.D. 2025-Jul-26 00:00:00.0000, 6.107039986432280E+07, -2.981540310953382E+08, -1.576370175992446E+07,
2460889.500000000, A.D. 2025-Aug-02 00:00:00.0000, 7.410272343138053E+07, -2.961332421907703E+08, -1.542081720316991E+07,
2460896.500000000, A.D. 2025-Aug-09 00:00:00.0000, 8.700911719838400E+07, -2.936091368572427E+08, -1.505171905423212E+07,
2460903.500000000, A.D. 2025-Aug-16 00:00:00.0000, 9.976900959968010E+07, -2.905906130543822E+08, -1.465727085932730E+07,
2460910.500000000, A.D. 2025-Aug-23 00:00:00.0000, 1.123625302773888E+08, -2.870874648411259E+08, -1.423837453287303E+07,
2460917.500000000, A.D. 2025-Aug-30 00:00:00.0000, 1.247705501025741E+08, -2.831103207725129E+08, -1.379596628740777E+07,
2460924.500000000, A.D. 2025-Sep-06 00:00:00.0000, 1.369747146704515E+08, -2.786705796267838E+08, -1.333101240665340E+07,
2460931.500000000, A.D. 2025-Sep-13 00:00:00.0000, 1.489574697137834E+08, -2.737803465100160E+08, -1.284450494083346E+07,
2460938.500000000, A.D. 2025-Sep-20 00:00:00.0000, 1.607020818805966E+08, -2.684523715081301E+08, -1.233745778557798E+07,
2460945.500000000, A.D. 2025-Sep-27 00:00:00.0000, 1.721926561575455E+08, -2.626999882625794E+08, -1.181090301081799E+07,
2460952.500000000, A.D. 2025-Oct-04 00:00:00.0000, 1.834141481835247E+08, -2.565370523745737E+08, -1.126588723082867E+07,
2460959.500000000, A.D. 2025-Oct-11 00:00:00.0000, 1.943523713720517E+08, -2.499778809753073E+08, -1.070346807515095E+07,
2460966.500000000, A.D. 2025-Oct-18 00:00:00.0000, 2.049939994429839E+08, -2.430371940812001E+08, -1.012471082265662E+07,
2460973.500000000, A.D. 2025-Oct-25 00:00:00.0000, 2.153265648377343E+08, -2.357300580190341E+08, -9.530685221458629E+06,
2460980.500000000, A.D. 2025-Nov-01 00:00:00.0000, 2.253384534022418E+08, -2.280718311536915E+08, -8.922462504997894E+06,
2460987.500000000, A.D. 2025-Nov-08 00:00:00.0000, 2.350188957202327E+08, -2.200781121504800E+08, -8.301112615550160E+06,
2460994.500000000, A.D. 2025-Nov-15 00:00:00.0000, 2.443579555925919E+08, -2.117646909841372E+08, -7.667701656799600E+06,
2461001.500000000, A.D. 2025-Nov-22 00:00:00.0000, 2.533465164134809E+08, -2.031475025874429E+08, -7.023289595267743E+06,
2461008.500000000, A.D. 2025-Nov-29 00:00:00.0000, 2.619762656320971E+08, -1.942425820858629E+08, -6.368928102131650E+06,
2461015.500000000, A.D. 2025-Dec-06 00:00:00.0000, 2.702396753480210E+08, -1.850660218035859E+08, -5.705658334351934E+06,
2461022.500000000, A.D. 2025-Dec-13 00:00:00.0000, 2.781299797787412E+08, -1.756339334236422E+08, -5.034508966032460E+06,
2461029.500000000, A.D. 2025-Dec-20 00:00:00.0000, 2.856411533825251E+08, -1.659624142596572E+08, -4.356494701274812E+06,
2461036.500000000, A.D. 2025-Dec-27 00:00:00.0000, 2.927678888391366E+08, -1.560675150076467E+08, -3.672614951353282E+06,
2461043.500000000, A.D. 2026-Jan-03 00:00:00.0000, 2.995055736864837E+08, -1.459652095347638E+08, -2.983852584773749E+06,
2461050.500000000, A.D. 2026-Jan-10 00:00:00.0000, 3.058502659594460E+08, -1.356713673074754E+08, -2.291172807199001E+06,
2461057.500000000, A.D. 2026-Jan-17 00:00:00.0000, 3.117986692799959E+08, -1.252017284596218E+08, -1.595522190949000E+06,
2461064.500000000, A.D. 2026-Jan-24 00:00:00.0000, 3.173481076737790E+08, -1.145718813757105E+08, -8.978278498107344E+05,
2461071.500000000, A.D. 2026-Jan-31 00:00:00.0000, 3.224965003140904E+08, -1.037972426877292E+08, -1.989967520783171E+05,
2461078.500000000, A.D. 2026-Feb-07 00:00:00.0000, 3.272423364101619E+08, -9.289303962939763E+07, 5.000848275378719E+05,
2461085.500000000, A.D. 2026-Feb-14 00:00:00.0000, 3.315846506225524E+08, -8.187429464447542E+07, 1.198551701535620E+06,
2461092.500000000, A.D. 2026-Feb-21 00:00:00.0000, 3.355229995011720E+08, -7.075581154340969E+07, 1.895560028534245E+06,
2461099.500000000, A.D. 2026-Feb-28 00:00:00.0000, 3.390574379618506E+08, -5.955216191987440E+07, 2.590287639789350E+06,
2461106.500000000, A.D. 2026-Mar-07 00:00:00.0000, 3.421884938386356E+08, -4.827767364760582E+07, 3.281934471489759E+06,
2461113.500000000, A.D. 2026-Mar-14 00:00:00.0000, 3.449171433677506E+08, -3.694642366580372E+07, 3.969722665846813E+06,
2461120.500000000, A.D. 2026-Mar-21 00:00:00.0000, 3.472447894532265E+08, -2.557223203398189E+07, 4.652896422770005E+06,
2461127.500000000, A.D. 2026-Mar-28 00:00:00.0000, 3.491732407610096E+08, -1.416865611352741E+07, 5.330721879009110E+06,
2461134.500000000, A.D. 2026-Apr-04 00:00:00.0000, 3.507046910795032E+08, -2.748985732733174E+06, 6.002486998921866E+06,
2461141.500000000, A.D. 2026-Apr-11 00:00:00.0000, 3.518416992490081E+08, 8.673760411190327E+06, 6.667501429170728E+06,
2461148.500000000, A.D. 2026-Apr-18 00:00:00.0000, 3.525871698385991E+08, 2.008683721015434E+07, 7.325096308461687E+06,
2461155.500000000, A.D. 2026-Apr-25 00:00:00.0000, 3.529443346287326E+08, 3.147777457770276E+07, 7.974624035211505E+06,
2461162.500000000, A.D. 2026-May-02 00:00:00.0000, 3.529167349373386E+08, 4.283437792107987E+07, 8.615457993479442E+06,
2461169.500000000, A.D. 2026-May-09 00:00:00.0000, 3.525082049163283E+08, 5.414472767527022E+07, 9.246992225498516E+06,
2461176.500000000, A.D. 2026-May-16 00:00:00.0000, 3.517228561923648E+08, 6.539717811883217E+07, 9.868641031846676E+06,
2461183.500000000, A.D. 2026-May-23 00:00:00.0000, 3.505650638905578E+08, 7.658035657129663E+07, 1.047983858172481E+07,
2461190.500000000, A.D. 2026-May-30 00:00:00.0000, 3.490394519494582E+08, 8.768316336953852E+07, 1.108003875443768E+07,
2461197.500000000, A.D. 2026-Jun-06 00:00:00.0000, 3.471508774029937E+08, 9.869476941907530E+07, 1.166871497804446E+07,
2461204.500000000, A.D. 2026-Jun-13 00:00:00.0000, 3.449044172788047E+08, 1.096046115782100E+08, 1.224535974781218E+07,
2461211.500000000, A.D. 2026-Jun-20 00:00:00.0000, 3.423053575878375E+08, 1.204023888590416E+08, 1.280948411181324E+07,
2461218.500000000, A.D. 2026-Jun-27 00:00:00.0000, 3.393591826846608E+08, 1.310780591610469E+08, 1.336061725422157E+07,
2461225.500000000, A.D. 2026-Jul-04 00:00:00.0000, 3.360715649766773E+08, 1.416218358129047E+08, 1.389830611531019E+07,
2461232.500000000, A.D. 2026-Jul-11 00:00:00.0000, 3.324483552131556E+08, 1.520241838367249E+08, 1.442211501606772E+07,
2461239.500000000, A.D. 2026-Jul-18 00:00:00.0000, 3.284955734227103E+08, 1.622758160027097E+08, 1.493162528276736E+07,
2461246.500000000, A.D. 2026-Jul-25 00:00:00.0000, 3.242194004989548E+08, 1.723676887159254E+08, 1.542643487103780E+07,
2461253.500000000, A.D. 2026-Aug-01 00:00:00.0000, 3.196261704576296E+08, 1.822909977231505E+08, 1.590615798255884E+07,
2461260.500000000, A.D. 2026-Aug-08 00:00:00.0000, 3.147223635560919E+08, 1.920371736372302E+08, 1.637042465313339E+07,
2461267.500000000, A.D. 2026-Aug-15 00:00:00.0000, 3.095146006666614E+08, 2.015978777581776E+08, 1.681888031186250E+07,
2461274.500000000, A.D. 2026-Aug-22 00:00:00.0000, 3.040096381147042E+08, 2.109649994362400E+08, 1.725118548137836E+07,
2461281.500000000, A.D. 2026-Aug-29 00:00:00.0000, 2.982143606629264E+08, 2.201306536318056E+08, 1.766701571815021E+07,
2461288.500000000, A.D. 2026-Sep-05 00:00:00.0000, 2.921357747568488E+08, 2.290871758324917E+08, 1.806606136467877E+07,
2461295.500000000, A.D. 2026-Sep-12 00:00:00.0000, 2.857810044662471E+08, 2.378271168418350E+08, 1.844802709277263E+07,
$$EOE